{"results":1,"data":[{"icao":"EGTK","barometer":{"hg":30.18,"hpa":1022.0,"kpa":102.2,"mb":1022.01},"clouds":[{"code":"CAVOK","text":"Clear skies"}],"dewpoint":{"celsius":7,"fahrenheit":45},"elevation":{"feet":256.0,"meters":78.0},"flight_category":"VFR","humidity":{"percent":77},"observed":"2025-05-17T21:20:00","station":{"geometry":{"coordinates":[-1.32,51.837],"type":"Point"},"location":"Kidlington, Oxfordshire, England, United Kingdom","name":"Oxford (Kidlington) Airport","type":"Station"},"temperature":{"celsius":11,"fahrenheit":52},"raw_text":"EGTK 172120Z 29004KT CAVOK 11/07 Q1022","visibility":{"miles":10.0,"miles_text":"Greater than 10","meters":9999.0,"meters_text":"Greater than 10,000"},"wind":{"degrees":290,"speed_kph":7,"speed_kts":4,"speed_mph":5,"speed_mps":2}}]}