{"data":[{"barometer":{"hg":30.35,"hpa":1028.0,"kpa":102.79,"mb":1027.92},"ceiling":{"base_feet_agl":0,"base_meters_agl":0,"code":"OVX","feet":0,"meters":0,"text":"Vertical visibility"},"clouds":[{"base_feet_agl":0,"base_meters_agl":0,"code":"OVX","feet":0,"meters":0,"text":"Vertical visibility"}],"conditions":[{"code":"FG","text":"Fog"}],"dewpoint":{"celsius":4,"fahrenheit":39},"elevation":{"feet":256,"meters":78},"flight_category":"LIFR","humidity":{"percent":100},"icao":"EGTK","observed":"2022-12-01T16:20Z","raw_text":"EGTK 011620Z VRB03KT 0200 R19/0700 FG VV/// 04/04 Q1028","station":{"geometry":{"coordinates":[-1.32,51.836899],"type":"Point"},"location":"Kidlington, GB","name":"Oxford (Kidlington) Airport","type":"Airport"},"temperature":{"celsius":4,"fahrenheit":39},"visibility":{"meters":"200","meters_float":200.0,"miles":"0.12","miles_float":0.12},"wind":{"degrees":0,"speed_kph":6,"speed_kts":3,"speed_mph":3,"speed_mps":2}}],"results":1}