{"data":[{"barometer":{"hg":30.5,"hpa":1033.0,"kpa":103.29,"mb":1032.92},"clouds":[{"code":"CLR","text":"Clear skies"}],"dewpoint":{"celsius":3,"fahrenheit":37},"elevation":{"feet":256,"meters":78},"flight_category":"MVFR","humidity":{"percent":87},"icao":"EGTK","observed":"2023-02-08T13:20:00","raw_text":"EGTK 081320Z 20005KT 160V260 7000 NSC 05/03 Q1033","station":{"geometry":{"coordinates":[-1.32,51.836899],"type":"Point"},"location":"Kidlington, GB","name":"Oxford (Kidlington) Airport","type":"Airport"},"temperature":{"celsius":5,"fahrenheit":41},"visibility":{"meters":"7,000","meters_float":7000.0,"miles":"4.35","miles_float":4.35},"wind":{"degrees":200,"speed_kph":9,"speed_kts":5,"speed_mph":6,"speed_mps":3},"windchill":{"celsius":3,"fahrenheit":37}}],"results":1}