{"results":1,"data":[{"icao":"EGTK","barometer":{"hg":29.76,"hpa":1008.0,"kpa":100.78,"mb":1007.79},"clouds":[{"base_feet_agl":2100,"base_meters_agl":640,"code":"FEW","text":"Few","feet":2100,"meters":640}],"conditions":[{"code":"SH","text":"Area Showers"}],"dewpoint":{"celsius":15,"fahrenheit":59},"elevation":{"feet":256.0,"meters":78.0},"flight_category":"VFR","humidity":{"percent":88},"observed":"2024-09-07T19:50:00","station":{"geometry":{"coordinates":[-1.32,51.836899],"type":"Point"},"location":"Cherwell District, England, United Kingdom","name":"Oxford (Kidlington) Airport","type":"Airport"},"temperature":{"celsius":17,"fahrenheit":63},"raw_text":"EGTK 071950Z 00000KT 9999 VCSH FEW021 17/15 Q1008","visibility":{"miles":"Greater than 6","miles_float":6.0,"meters":"9,700","meters_float":9700.0}}]}