{"results":1,"data":[{"icao":"EGTK","barometer":{"hg":29.68,"hpa":1005.0,"kpa":100.51,"mb":1005.08},"clouds":[{"base_feet_agl":4500,"base_meters_agl":1372,"code":"FEW","text":"Few","feet":4500,"meters":1372}],"dewpoint":{"celsius":8,"fahrenheit":46},"elevation":{"feet":256.0,"meters":78.0},"flight_category":"VFR","humidity":{"percent":46},"observed":"2024-08-23T11:50:00","station":{"geometry":{"coordinates":[-1.32,51.836899],"type":"Point"},"location":"Cherwell District, England, United Kingdom","name":"Oxford (Kidlington) Airport","type":"Airport"},"temperature":{"celsius":20,"fahrenheit":68},"raw_text":"EGTK 231150Z 26014G24KT 230V290 9999 FEW045 20/08 Q1005","visibility":{"miles":"Greater than 6","miles_float":6.0,"meters":"9,700","meters_float":9700.0},"wind":{"degrees":260,"speed_kph":26,"speed_kts":14,"speed_mph":16,"speed_mps":7,"gust_kph":44,"gust_kts":24,"gust_mph":28,"gust_mps":12}}]}