{"results":1,"data":[{"icao":"EGVN","barometer":{"hg":30.32,"hpa":1027.0,"kpa":102.68,"mb":1026.75},"clouds":[{"code":"CAVOK","text":"Clear skies"}],"dewpoint":{"celsius":5,"fahrenheit":41},"elevation":{"feet":272.0,"meters":83.0},"flight_category":"VFR","humidity":{"percent":82},"observed":"2025-04-10T21:20:00","station":{"geometry":{"coordinates":[-1.584,51.75],"type":"Point"},"location":"Carterton, Oxfordshire, England, United Kingdom","name":"RAF Brize Norton","type":"Station"},"temperature":{"celsius":8,"fahrenheit":46},"raw_text":"EGVN 102120Z 31002KT CAVOK 08/05 Q1027 NOSIG RMK BLU BLU","visibility":{"miles":10.0,"miles_text":"Greater than 10","meters":9999.0,"meters_text":"Greater than 10,000"},"wind":{"degrees":310,"speed_kph":4,"speed_kts":2,"speed_mph":2,"speed_mps":1}}]}