{"results":1,"data":[{"icao":"EGTK","barometer":{"hg":29.79,"hpa":1009.0,"kpa":100.88,"mb":1008.81},"ceiling":{"feet":500,"meters":152},"clouds":[{"base_feet_agl":500,"base_meters_agl":152,"code":"BKN","text":"Broken","feet":500,"meters":152},{"base_feet_agl":600,"base_meters_agl":183,"code":"OVC","text":"Overcast","feet":600,"meters":183}],"conditions":[{"code":"BR","text":"Mist"}],"dewpoint":{"celsius":19,"fahrenheit":66},"elevation":{"feet":256.0,"meters":78.0},"flight_category":"IFR","humidity":{"percent":100},"observed":"2024-09-02T07:20:00","station":{"geometry":{"coordinates":[-1.32,51.836899],"type":"Point"},"location":"Cherwell District, England, United Kingdom","name":"Oxford (Kidlington) Airport","type":"Airport"},"temperature":{"celsius":19,"fahrenheit":66},"raw_text":"EGTK 020720Z 20006KT 3600 BR BKN005 OVC006 19/19 Q1009","visibility":{"miles":"2.24","miles_float":2.24,"meters":"3,600","meters_float":3600.0},"wind":{"degrees":200,"speed_kph":11,"speed_kts":6,"speed_mph":7,"speed_mps":3}}]}