{"results":1,"data":[{"icao":"EGTE","barometer":{"hg":29.97,"hpa":1015.0,"kpa":101.49,"mb":1014.9},"clouds":[{"base_feet_agl":3200,"base_meters_agl":975,"code":"FEW","text":"Few","feet":3200,"meters":975}],"dewpoint":{"celsius":4,"fahrenheit":39},"elevation":{"feet":98.0,"meters":30.0},"flight_category":"VFR","humidity":{"percent":76},"observed":"2024-04-15T21:20:00","station":{"geometry":{"coordinates":[-3.41389,50.734402],"type":"Point"},"location":"East Devon, England, United Kingdom","name":"Exeter International Airport","type":"Airport"},"temperature":{"celsius":8,"fahrenheit":46},"raw_text":"EGTE 152120Z 29011KT 9999 FEW032 08/04 Q1015","visibility":{"miles":"Greater than 6","miles_float":6.0,"meters":"9,700","meters_float":9700.0},"wind":{"degrees":290,"speed_kph":20,"speed_kts":11,"speed_mph":13,"speed_mps":6}}]}