{"data":[{"barometer":{"hg":30.24,"hpa":1024.0,"kpa":102.39,"mb":1023.92},"clouds":[{"base_feet_agl":3300,"base_meters_agl":1006,"code":"FEW","feet":3300,"meters":1006,"text":"Few"},{"base_feet_agl":3800,"base_meters_agl":1158,"code":"SCT","feet":3800,"meters":1158,"text":"Scattered"}],"dewpoint":{"celsius":2,"fahrenheit":36},"elevation":{"feet":256,"meters":78},"flight_category":"VFR","humidity":{"percent":66},"icao":"EGTK","observed":"2023-01-31T17:20Z","raw_text":"EGTK 311720Z 30009KT 9999 FEW033 SCT038 08/02 Q1024","station":{"geometry":{"coordinates":[-1.32,51.836899],"type":"Point"},"location":"Kidlington, GB","name":"Oxford (Kidlington) Airport","type":"Airport"},"temperature":{"celsius":8,"fahrenheit":46},"visibility":{"meters":"10,000+","meters_float":9999,"miles":"Greater than 6","miles_float":6.21},"wind":{"degrees":300,"speed_kph":17,"speed_kts":9,"speed_mph":10,"speed_mps":5},"windchill":{"celsius":5,"fahrenheit":41}}],"results":1}