{"data":[{"barometer":{"hg":30.27,"hpa":1025.0,"kpa":102.49,"mb":1024.92},"ceiling":{"base_feet_agl":4200,"base_meters_agl":1280,"code":"OVC","feet":4200,"meters":1280,"text":"Overcast"},"clouds":[{"base_feet_agl":4200,"base_meters_agl":1280,"code":"OVC","feet":4200,"meters":1280,"text":"Overcast"}],"dewpoint":{"celsius":4,"fahrenheit":39},"elevation":{"feet":256,"meters":78},"flight_category":"VFR","humidity":{"percent":81},"icao":"EGTK","observed":"2023-02-01T20:50Z","raw_text":"EGTK 012050Z 26013KT 9999 OVC042 07/04 Q1025","station":{"geometry":{"coordinates":[-1.32,51.836899],"type":"Point"},"location":"Kidlington, GB","name":"Oxford (Kidlington) Airport","type":"Airport"},"temperature":{"celsius":7,"fahrenheit":45},"visibility":{"meters":"10,000+","meters_float":9999,"miles":"Greater than 6","miles_float":6.21},"wind":{"degrees":260,"speed_kph":24,"speed_kts":13,"speed_mph":15,"speed_mps":7},"windchill":{"celsius":3,"fahrenheit":38}}],"results":1}