{"results":1,"data":[{"icao":"EGTK","barometer":{"hg":29.68,"hpa":1005.0,"kpa":100.51,"mb":1005.08},"clouds":[{"code":"CAVOK","text":"Clear skies"}],"dewpoint":{"celsius":-1,"fahrenheit":30},"elevation":{"feet":256.0,"meters":78.0},"flight_category":"VFR","humidity":{"percent":93},"observed":"2023-11-30T19:50:00","station":{"geometry":{"coordinates":[-1.32,51.836899],"type":"Point"},"location":"Cherwell District, England, United Kingdom","name":"Oxford (Kidlington) Airport","type":"Airport"},"temperature":{"celsius":0,"fahrenheit":32},"raw_text":"EGTK 301950Z 01006KT CAVOK M00/M01 Q1005","visibility":{"miles":"Greater than 6","miles_float":6.0,"meters":"9,700","meters_float":9700.0},"wind":{"degrees":10,"speed_kph":11,"speed_kts":6,"speed_mph":7,"speed_mps":3}}]}