{"results":1,"data":[{"icao":"EGVN","barometer":{"hg":30.21,"hpa":1023.0,"kpa":102.3,"mb":1023.03},"clouds":[{"base_feet_agl":3300,"base_meters_agl":1006,"code":"FEW","text":"Few","feet":3300,"meters":1006}],"dewpoint":{"celsius":0,"fahrenheit":32},"elevation":{"feet":272.0,"meters":83.0},"flight_category":"VFR","humidity":{"percent":61},"observed":"2025-01-30T15:20:00","station":{"geometry":{"coordinates":[-1.58362,51.75],"type":"Point"},"location":"West Oxfordshire, England, United Kingdom","name":"RAF Brize Norton","type":"Airport"},"temperature":{"celsius":7,"fahrenheit":45},"raw_text":"EGVN 301520Z 27005KT 9999 FEW033 07/M00 Q1023 NOSIG RMK BLU BLU","visibility":{"miles":"Greater than 10","miles_float":10.0,"meters":"Greater than 10,000","meters_float":9999.0},"wind":{"degrees":270,"speed_kph":9,"speed_kts":5,"speed_mph":6,"speed_mps":3}}]}